STARLINK-31253          
1 58830U 24017E   25213.21789809  .00001416  00000+0  59967-4 0  9996
2 58830  53.1599 148.2031 0001421  89.5661 270.5503 15.30181491 86302
STARLINK-31232          
1 58831U 24017F   25213.21367626  .00000931  00000+0  43575-4 0  9995
2 58831  53.1607 148.1749 0001541  92.3198 267.7979 15.30186068 86308
STARLINK-31263          
1 58832U 24017G   25213.78100256  .00002195  00000+0  64836-4 0  9999
2 58832  53.1593 141.0585 0001132  86.8349 273.2786 15.39622170 86581
STARLINK-31171          
1 58834U 24017J   25213.78515104 -.00001990  00000+0 -55101-4 0  9992
2 58834  53.1589 122.2051 0001041 100.5309 259.5809 15.30187864 86733
STARLINK-31246          
1 58835U 24017K   25213.81521855 -.00000073  00000+0  96654-5 0  9996
2 58835  53.1592 145.5278 0001273  93.9211 266.1935 15.30185866 86409
STARLINK-31251          
1 58836U 24017L   25213.23478009  .00000125  00000+0  16348-4 0  9993
2 58836  53.1587 148.3031 0001293  72.0020 288.1122 15.30194392 86417
STARLINK-31249          
1 58838U 24017N   25213.24111423 -.00000097  00000+0  88477-5 0  9992
2 58838  53.1591 148.3428 0001319  72.9543 287.1602 15.30190608 86308
STARLINK-31250          
1 58839U 24017P   25213.18747697  .00001603  00000+0  50043-4 0  9994
2 58839  53.1577 143.7529 0000890  96.9042 263.2064 15.39622328 86313
STARLINK-31248          
1 58840U 24017Q   25213.87054078 -.00000837  00000+0 -16141-4 0  9997
2 58840  53.1599 157.9243 0001332  87.9721 272.1433 15.30189154 86343
STARLINK-31236          
1 58841U 24017R   25213.24744394  .00000039  00000+0  13461-4 0  9990
2 58841  53.1591 148.3828 0001264  76.2239 283.8902 15.30192034 86305
STARLINK-31228          
1 58842U 24017S   25213.11364786  .00000710  00000+0  36104-4 0  9995
2 58842  53.1591 148.9727 0001233  94.4020 265.7121 15.30193239 86283
STARLINK-31280          
1 58843U 24017T   25212.98935009 -.00000143  00000+0  72964-5 0  9998
2 58843  53.1595 149.6181 0001112  90.1104 270.0024 15.30195007 86266
STARLINK-31269          
1 58844U 24017U   25213.47788835  .00000133  00000+0  16607-4 0  9996
2 58844  53.1588 237.3122 0001048  81.2023 278.9097 15.30193389 85052
STARLINK-31264          
1 58845U 24017V   25213.36192267  .00000035  00000+0  13315-4 0  9997
2 58845  53.1587 237.3069 0001099  87.0926 273.0200 15.30193685 85044
STARLINK-31273          
1 58846U 24017W   25213.18846196  .00000028  00000+0  13076-4 0  9991
2 58846  53.1602 148.7262 0001233  89.3552 270.7590 15.30191430 86293
STARLINK-31262          
1 58847U 24017X   25213.30399313  .00005978  00000+0  21384-3 0  9999
2 58847  53.1587 237.6541 0000957  92.8429 267.2681 15.30192663 85030
STARLINK-31238          
1 58853U 24019A   25213.52782578 -.00001890  00000+0 -62452-4 0  9994
2 58853  43.0029  51.2211 0001276 269.9357  90.1348 15.25890791 85429
