[{"OBJECT_NAME":"STARLINK-31253","OBJECT_ID":"2024-017E","EPOCH":"2025-08-01T05:13:46.394976","MEAN_MOTION":15.30181491,"ECCENTRICITY":0.0001421,"INCLINATION":53.1599,"RA_OF_ASC_NODE":148.2031,"ARG_OF_PERICENTER":89.5661,"MEAN_ANOMALY":270.5503,"EPHEMERIS_TYPE":0,"CLASSIFICATION_TYPE":"U","NORAD_CAT_ID":58830,"ELEMENT_SET_NO":999,"REV_AT_EPOCH":8630,"BSTAR":5.9967e-5,"MEAN_MOTION_DOT":1.416e-5,"MEAN_MOTION_DDOT":0},{"OBJECT_NAME":"STARLINK-31232","OBJECT_ID":"2024-017F","EPOCH":"2025-08-01T05:07:41.628864","MEAN_MOTION":15.30186068,"ECCENTRICITY":0.0001541,"INCLINATION":53.1607,"RA_OF_ASC_NODE":148.1749,"ARG_OF_PERICENTER":92.3198,"MEAN_ANOMALY":267.7979,"EPHEMERIS_TYPE":0,"CLASSIFICATION_TYPE":"U","NORAD_CAT_ID":58831,"ELEMENT_SET_NO":999,"REV_AT_EPOCH":8630,"BSTAR":4.3575e-5,"MEAN_MOTION_DOT":9.31e-6,"MEAN_MOTION_DDOT":0},{"OBJECT_NAME":"STARLINK-31263","OBJECT_ID":"2024-017G","EPOCH":"2025-08-01T18:44:38.621184","MEAN_MOTION":15.3962217,"ECCENTRICITY":0.0001132,"INCLINATION":53.1593,"RA_OF_ASC_NODE":141.0585,"ARG_OF_PERICENTER":86.8349,"MEAN_ANOMALY":273.2786,"EPHEMERIS_TYPE":0,"CLASSIFICATION_TYPE":"U","NORAD_CAT_ID":58832,"ELEMENT_SET_NO":999,"REV_AT_EPOCH":8658,"BSTAR":6.4836e-5,"MEAN_MOTION_DOT":2.195e-5,"MEAN_MOTION_DDOT":0},{"OBJECT_NAME":"STARLINK-31171","OBJECT_ID":"2024-017J","EPOCH":"2025-08-01T18:50:37.049856","MEAN_MOTION":15.30187864,"ECCENTRICITY":0.0001041,"INCLINATION":53.1589,"RA_OF_ASC_NODE":122.2051,"ARG_OF_PERICENTER":100.5309,"MEAN_ANOMALY":259.5809,"EPHEMERIS_TYPE":0,"CLASSIFICATION_TYPE":"U","NORAD_CAT_ID":58834,"ELEMENT_SET_NO":999,"REV_AT_EPOCH":8673,"BSTAR":-5.5101e-5,"MEAN_MOTION_DOT":-1.99e-5,"MEAN_MOTION_DDOT":0},{"OBJECT_NAME":"STARLINK-31246","OBJECT_ID":"2024-017K","EPOCH":"2025-08-01T19:33:54.882720","MEAN_MOTION":15.30185866,"ECCENTRICITY":0.0001273,"INCLINATION":53.1592,"RA_OF_ASC_NODE":145.5278,"ARG_OF_PERICENTER":93.9211,"MEAN_ANOMALY":266.1935,"EPHEMERIS_TYPE":0,"CLASSIFICATION_TYPE":"U","NORAD_CAT_ID":58835,"ELEMENT_SET_NO":999,"REV_AT_EPOCH":8640,"BSTAR":9.6654e-6,"MEAN_MOTION_DOT":-7.3e-7,"MEAN_MOTION_DDOT":0},{"OBJECT_NAME":"STARLINK-31251","OBJECT_ID":"2024-017L","EPOCH":"2025-08-01T05:38:04.999776","MEAN_MOTION":15.30194392,"ECCENTRICITY":0.0001293,"INCLINATION":53.1587,"RA_OF_ASC_NODE":148.3031,"ARG_OF_PERICENTER":72.002,"MEAN_ANOMALY":288.1122,"EPHEMERIS_TYPE":0,"CLASSIFICATION_TYPE":"U","NORAD_CAT_ID":58836,"ELEMENT_SET_NO":999,"REV_AT_EPOCH":8641,"BSTAR":1.6348e-5,"MEAN_MOTION_DOT":1.25e-6,"MEAN_MOTION_DDOT":0},{"OBJECT_NAME":"STARLINK-31249","OBJECT_ID":"2024-017N","EPOCH":"2025-08-01T05:47:12.269472","MEAN_MOTION":15.30190608,"ECCENTRICITY":0.0001319,"INCLINATION":53.1591,"RA_OF_ASC_NODE":148.3428,"ARG_OF_PERICENTER":72.9543,"MEAN_ANOMALY":287.1602,"EPHEMERIS_TYPE":0,"CLASSIFICATION_TYPE":"U","NORAD_CAT_ID":58838,"ELEMENT_SET_NO":999,"REV_AT_EPOCH":8630,"BSTAR":8.8477e-6,"MEAN_MOTION_DOT":-9.7e-7,"MEAN_MOTION_DDOT":0},{"OBJECT_NAME":"STARLINK-31250","OBJECT_ID":"2024-017P","EPOCH":"2025-08-01T04:29:58.010208","MEAN_MOTION":15.39622328,"ECCENTRICITY":8.9e-5,"INCLINATION":53.1577,"RA_OF_ASC_NODE":143.7529,"ARG_OF_PERICENTER":96.9042,"MEAN_ANOMALY":263.2064,"EPHEMERIS_TYPE":0,"CLASSIFICATION_TYPE":"U","NORAD_CAT_ID":58839,"ELEMENT_SET_NO":999,"REV_AT_EPOCH":8631,"BSTAR":5.0043e-5,"MEAN_MOTION_DOT":1.603e-5,"MEAN_MOTION_DDOT":0},{"OBJECT_NAME":"STARLINK-31248","OBJECT_ID":"2024-017Q","EPOCH":"2025-08-01T20:53:34.723392","MEAN_MOTION":15.30189154,"ECCENTRICITY":0.0001332,"INCLINATION":53.1599,"RA_OF_ASC_NODE":157.9243,"ARG_OF_PERICENTER":87.9721,"MEAN_ANOMALY":272.1433,"EPHEMERIS_TYPE":0,"CLASSIFICATION_TYPE":"U","NORAD_CAT_ID":58840,"ELEMENT_SET_NO":999,"REV_AT_EPOCH":8634,"BSTAR":-1.6141e-5,"MEAN_MOTION_DOT":-8.37e-6,"MEAN_MOTION_DDOT":0},{"OBJECT_NAME":"STARLINK-31236","OBJECT_ID":"2024-017R","EPOCH":"2025-08-01T05:56:19.156416","MEAN_MOTION":15.30192034,"ECCENTRICITY":0.0001264,"INCLINATION":53.1591,"RA_OF_ASC_NODE":148.3828,"ARG_OF_PERICENTER":76.2239,"MEAN_ANOMALY":283.8902,"EPHEMERIS_TYPE":0,"CLASSIFICATION_TYPE":"U","NORAD_CAT_ID":58841,"ELEMENT_SET_NO":999,"REV_AT_EPOCH":8630,"BSTAR":1.3461e-5,"MEAN_MOTION_DOT":3.9e-7,"MEAN_MOTION_DDOT":0},{"OBJECT_NAME":"STARLINK-31228","OBJECT_ID":"2024-017S","EPOCH":"2025-08-01T02:43:39.175104","MEAN_MOTION":15.30193239,"ECCENTRICITY":0.0001233,"INCLINATION":53.1591,"RA_OF_ASC_NODE":148.9727,"ARG_OF_PERICENTER":94.402,"MEAN_ANOMALY":265.7121,"EPHEMERIS_TYPE":0,"CLASSIFICATION_TYPE":"U","NORAD_CAT_ID":58842,"ELEMENT_SET_NO":999,"REV_AT_EPOCH":8628,"BSTAR":3.6104e-5,"MEAN_MOTION_DOT":7.1e-6,"MEAN_MOTION_DDOT":0},{"OBJECT_NAME":"STARLINK-31280","OBJECT_ID":"2024-017T","EPOCH":"2025-07-31T23:44:39.847776","MEAN_MOTION":15.30195007,"ECCENTRICITY":0.0001112,"INCLINATION":53.1595,"RA_OF_ASC_NODE":149.6181,"ARG_OF_PERICENTER":90.1104,"MEAN_ANOMALY":270.0024,"EPHEMERIS_TYPE":0,"CLASSIFICATION_TYPE":"U","NORAD_CAT_ID":58843,"ELEMENT_SET_NO":999,"REV_AT_EPOCH":8626,"BSTAR":7.2964e-6,"MEAN_MOTION_DOT":-1.43e-6,"MEAN_MOTION_DDOT":0},{"OBJECT_NAME":"STARLINK-31269","OBJECT_ID":"2024-017U","EPOCH":"2025-08-01T11:28:09.553440","MEAN_MOTION":15.30193389,"ECCENTRICITY":0.0001048,"INCLINATION":53.1588,"RA_OF_ASC_NODE":237.3122,"ARG_OF_PERICENTER":81.2023,"MEAN_ANOMALY":278.9097,"EPHEMERIS_TYPE":0,"CLASSIFICATION_TYPE":"U","NORAD_CAT_ID":58844,"ELEMENT_SET_NO":999,"REV_AT_EPOCH":8505,"BSTAR":1.6607e-5,"MEAN_MOTION_DOT":1.33e-6,"MEAN_MOTION_DDOT":0},{"OBJECT_NAME":"STARLINK-31264","OBJECT_ID":"2024-017V","EPOCH":"2025-08-01T08:41:10.118688","MEAN_MOTION":15.30193685,"ECCENTRICITY":0.0001099,"INCLINATION":53.1587,"RA_OF_ASC_NODE":237.3069,"ARG_OF_PERICENTER":87.0926,"MEAN_ANOMALY":273.02,"EPHEMERIS_TYPE":0,"CLASSIFICATION_TYPE":"U","NORAD_CAT_ID":58845,"ELEMENT_SET_NO":999,"REV_AT_EPOCH":8504,"BSTAR":1.3315e-5,"MEAN_MOTION_DOT":3.5e-7,"MEAN_MOTION_DDOT":0},{"OBJECT_NAME":"STARLINK-31273","OBJECT_ID":"2024-017W","EPOCH":"2025-08-01T04:31:23.113344","MEAN_MOTION":15.3019143,"ECCENTRICITY":0.0001233,"INCLINATION":53.1602,"RA_OF_ASC_NODE":148.7262,"ARG_OF_PERICENTER":89.3552,"MEAN_ANOMALY":270.759,"EPHEMERIS_TYPE":0,"CLASSIFICATION_TYPE":"U","NORAD_CAT_ID":58846,"ELEMENT_SET_NO":999,"REV_AT_EPOCH":8629,"BSTAR":1.3076e-5,"MEAN_MOTION_DOT":2.8e-7,"MEAN_MOTION_DDOT":0},{"OBJECT_NAME":"STARLINK-31262","OBJECT_ID":"2024-017X","EPOCH":"2025-08-01T07:17:45.006432","MEAN_MOTION":15.30192663,"ECCENTRICITY":9.57e-5,"INCLINATION":53.1587,"RA_OF_ASC_NODE":237.6541,"ARG_OF_PERICENTER":92.8429,"MEAN_ANOMALY":267.2681,"EPHEMERIS_TYPE":0,"CLASSIFICATION_TYPE":"U","NORAD_CAT_ID":58847,"ELEMENT_SET_NO":999,"REV_AT_EPOCH":8503,"BSTAR":0.00021384,"MEAN_MOTION_DOT":5.978e-5,"MEAN_MOTION_DDOT":0},{"OBJECT_NAME":"STARLINK-31238","OBJECT_ID":"2024-019A","EPOCH":"2025-08-01T12:40:04.147392","MEAN_MOTION":15.25890791,"ECCENTRICITY":0.0001276,"INCLINATION":43.0029,"RA_OF_ASC_NODE":51.2211,"ARG_OF_PERICENTER":269.9357,"MEAN_ANOMALY":90.1348,"EPHEMERIS_TYPE":0,"CLASSIFICATION_TYPE":"U","NORAD_CAT_ID":58853,"ELEMENT_SET_NO":999,"REV_AT_EPOCH":8542,"BSTAR":-6.2452e-5,"MEAN_MOTION_DOT":-1.89e-5,"MEAN_MOTION_DDOT":0}]
